[{"OBJECT_NAME":"COSMOS 2433 (720)","OBJECT_ID":"2007-052A","EPOCH":"2026-03-15T01:32:21.365952","MEAN_MOTION":2.13104285,"ECCENTRICITY":0.00016057,"INCLINATION":65.6288,"RA_OF_ASC_NODE":319.1032,"ARG_OF_PERICENTER":272.4812,"MEAN_ANOMALY":87.564,"EPHEMERIS_TYPE":0,"CLASSIFICATION_TYPE":"U","NORAD_CAT_ID":32275,"ELEMENT_SET_NO":999,"REV_AT_EPOCH":14305,"BSTAR":0,"MEAN_MOTION_DOT":-2.1e-7,"MEAN_MOTION_DDOT":0},{"OBJECT_NAME":"COSMOS 2432 (719)","OBJECT_ID":"2007-052B","EPOCH":"2026-03-15T07:40:40.808928","MEAN_MOTION":2.13103439,"ECCENTRICITY":0.00103731,"INCLINATION":65.6447,"RA_OF_ASC_NODE":319.2205,"ARG_OF_PERICENTER":332.5582,"MEAN_ANOMALY":167.9106,"EPHEMERIS_TYPE":0,"CLASSIFICATION_TYPE":"U","NORAD_CAT_ID":32276,"ELEMENT_SET_NO":999,"REV_AT_EPOCH":14308,"BSTAR":0,"MEAN_MOTION_DOT":-2.0e-7,"MEAN_MOTION_DDOT":0},{"OBJECT_NAME":"COSMOS 2434 (721)","OBJECT_ID":"2007-065A","EPOCH":"2026-03-15T06:55:59.289888","MEAN_MOTION":2.13101392,"ECCENTRICITY":0.00032951,"INCLINATION":64.318,"RA_OF_ASC_NODE":195.0802,"ARG_OF_PERICENTER":68.3245,"MEAN_ANOMALY":354.3984,"EPHEMERIS_TYPE":0,"CLASSIFICATION_TYPE":"U","NORAD_CAT_ID":32393,"ELEMENT_SET_NO":999,"REV_AT_EPOCH":14177,"BSTAR":0,"MEAN_MOTION_DOT":2.0e-8,"MEAN_MOTION_DDOT":0},{"OBJECT_NAME":"COSMOS 2436 (723)","OBJECT_ID":"2007-065C","EPOCH":"2026-03-15T06:50:14.590176","MEAN_MOTION":2.13100223,"ECCENTRICITY":0.00173921,"INCLINATION":64.3267,"RA_OF_ASC_NODE":195.1516,"ARG_OF_PERICENTER":5.8624,"MEAN_ANOMALY":186.4953,"EPHEMERIS_TYPE":0,"CLASSIFICATION_TYPE":"U","NORAD_CAT_ID":32395,"ELEMENT_SET_NO":999,"REV_AT_EPOCH":14172,"BSTAR":0,"MEAN_MOTION_DOT":2.0e-8,"MEAN_MOTION_DDOT":0},{"OBJECT_NAME":"COSMOS 2456 (730)","OBJECT_ID":"2009-070A","EPOCH":"2026-03-15T02:11:06.825408","MEAN_MOTION":2.13103812,"ECCENTRICITY":0.00063993,"INCLINATION":64.9557,"RA_OF_ASC_NODE":74.1805,"ARG_OF_PERICENTER":306.1491,"MEAN_ANOMALY":122.4207,"EPHEMERIS_TYPE":0,"CLASSIFICATION_TYPE":"U","NORAD_CAT_ID":36111,"ELEMENT_SET_NO":999,"REV_AT_EPOCH":12642,"BSTAR":0,"MEAN_MOTION_DOT":5.7e-7,"MEAN_MOTION_DDOT":0},{"OBJECT_NAME":"COSMOS 2457 (733)","OBJECT_ID":"2009-070B","EPOCH":"2026-03-14T01:15:57.143808","MEAN_MOTION":2.13101225,"ECCENTRICITY":0.00021133,"INCLINATION":64.9407,"RA_OF_ASC_NODE":74.0614,"ARG_OF_PERICENTER":199.4034,"MEAN_ANOMALY":280.8951,"EPHEMERIS_TYPE":0,"CLASSIFICATION_TYPE":"U","NORAD_CAT_ID":36112,"ELEMENT_SET_NO":999,"REV_AT_EPOCH":12640,"BSTAR":0,"MEAN_MOTION_DOT":5.2e-7,"MEAN_MOTION_DDOT":0},{"OBJECT_NAME":"COSMOS 2460 (732)","OBJECT_ID":"2010-007C","EPOCH":"2026-03-14T03:01:10.525728","MEAN_MOTION":2.13106375,"ECCENTRICITY":0.00019654,"INCLINATION":65.4743,"RA_OF_ASC_NODE":317.6854,"ARG_OF_PERICENTER":24.0874,"MEAN_ANOMALY":153.1858,"EPHEMERIS_TYPE":0,"CLASSIFICATION_TYPE":"U","NORAD_CAT_ID":36402,"ELEMENT_SET_NO":999,"REV_AT_EPOCH":12470,"BSTAR":0,"MEAN_MOTION_DOT":-2.4e-7,"MEAN_MOTION_DDOT":0},{"OBJECT_NAME":"COSMOS 2476 (744)","OBJECT_ID":"2011-064A","EPOCH":"2026-03-15T05:12:10.807200","MEAN_MOTION":2.13103968,"ECCENTRICITY":0.00251889,"INCLINATION":65.216,"RA_OF_ASC_NODE":76.0426,"ARG_OF_PERICENTER":241.7086,"MEAN_ANOMALY":191.6717,"EPHEMERIS_TYPE":0,"CLASSIFICATION_TYPE":"U","NORAD_CAT_ID":37867,"ELEMENT_SET_NO":999,"REV_AT_EPOCH":11176,"BSTAR":0,"MEAN_MOTION_DOT":6.0e-7,"MEAN_MOTION_DDOT":0},{"OBJECT_NAME":"COSMOS 2477 (745)","OBJECT_ID":"2011-064B","EPOCH":"2026-03-10T04:34:38.705664","MEAN_MOTION":2.13102941,"ECCENTRICITY":0.00222747,"INCLINATION":65.2195,"RA_OF_ASC_NODE":76.2908,"ARG_OF_PERICENTER":243.0435,"MEAN_ANOMALY":115.1265,"EPHEMERIS_TYPE":0,"CLASSIFICATION_TYPE":"U","NORAD_CAT_ID":37868,"ELEMENT_SET_NO":999,"REV_AT_EPOCH":11164,"BSTAR":0,"MEAN_MOTION_DOT":1.9e-7,"MEAN_MOTION_DDOT":0},{"OBJECT_NAME":"COSMOS 2475 (743)","OBJECT_ID":"2011-064C","EPOCH":"2026-03-14T02:27:17.971776","MEAN_MOTION":2.13101852,"ECCENTRICITY":0.00281626,"INCLINATION":65.2287,"RA_OF_ASC_NODE":76.1793,"ARG_OF_PERICENTER":254.5882,"MEAN_ANOMALY":179.9345,"EPHEMERIS_TYPE":0,"CLASSIFICATION_TYPE":"U","NORAD_CAT_ID":37869,"ELEMENT_SET_NO":999,"REV_AT_EPOCH":11174,"BSTAR":0,"MEAN_MOTION_DOT":5.6e-7,"MEAN_MOTION_DDOT":0},{"OBJECT_NAME":"COSMOS 2485 (747)","OBJECT_ID":"2013-019A","EPOCH":"2026-03-15T01:23:50.911296","MEAN_MOTION":2.13103306,"ECCENTRICITY":0.00254892,"INCLINATION":65.3662,"RA_OF_ASC_NODE":76.7624,"ARG_OF_PERICENTER":237.2219,"MEAN_ANOMALY":122.5718,"EPHEMERIS_TYPE":0,"CLASSIFICATION_TYPE":"U","NORAD_CAT_ID":39155,"ELEMENT_SET_NO":999,"REV_AT_EPOCH":10027,"BSTAR":0,"MEAN_MOTION_DOT":6.1e-7,"MEAN_MOTION_DDOT":0},{"OBJECT_NAME":"COSMOS 2492 (754)","OBJECT_ID":"2014-012A","EPOCH":"2026-03-15T00:24:38.195136","MEAN_MOTION":2.13103548,"ECCENTRICITY":0.00130143,"INCLINATION":65.3515,"RA_OF_ASC_NODE":317.1388,"ARG_OF_PERICENTER":327.6394,"MEAN_ANOMALY":32.3455,"EPHEMERIS_TYPE":0,"CLASSIFICATION_TYPE":"U","NORAD_CAT_ID":39620,"ELEMENT_SET_NO":999,"REV_AT_EPOCH":9323,"BSTAR":0,"MEAN_MOTION_DOT":-1.8e-7,"MEAN_MOTION_DDOT":0},{"OBJECT_NAME":"COSMOS 2500 (755)","OBJECT_ID":"2014-032A","EPOCH":"2026-03-14T05:59:23.023392","MEAN_MOTION":2.1310624,"ECCENTRICITY":0.00050445,"INCLINATION":65.2871,"RA_OF_ASC_NODE":316.9197,"ARG_OF_PERICENTER":197.8366,"MEAN_ANOMALY":162.208,"EPHEMERIS_TYPE":0,"CLASSIFICATION_TYPE":"U","NORAD_CAT_ID":40001,"ELEMENT_SET_NO":999,"REV_AT_EPOCH":9143,"BSTAR":0,"MEAN_MOTION_DOT":-2.2e-7,"MEAN_MOTION_DDOT":0},{"OBJECT_NAME":"COSMOS 2501 (702K)","OBJECT_ID":"2014-075A","EPOCH":"2026-03-14T00:59:02.749920","MEAN_MOTION":2.13101375,"ECCENTRICITY":0.00209682,"INCLINATION":63.6166,"RA_OF_ASC_NODE":193.6632,"ARG_OF_PERICENTER":206.5488,"MEAN_ANOMALY":153.3288,"EPHEMERIS_TYPE":0,"CLASSIFICATION_TYPE":"U","NORAD_CAT_ID":40315,"ELEMENT_SET_NO":999,"REV_AT_EPOCH":8782,"BSTAR":0,"MEAN_MOTION_DOT":0,"MEAN_MOTION_DDOT":0},{"OBJECT_NAME":"COSMOS 2514 (751)","OBJECT_ID":"2016-008A","EPOCH":"2026-03-14T23:08:06.860256","MEAN_MOTION":2.13102703,"ECCENTRICITY":0.00090074,"INCLINATION":65.0762,"RA_OF_ASC_NODE":316.2426,"ARG_OF_PERICENTER":206.6509,"MEAN_ANOMALY":153.3673,"EPHEMERIS_TYPE":0,"CLASSIFICATION_TYPE":"U","NORAD_CAT_ID":41330,"ELEMENT_SET_NO":999,"REV_AT_EPOCH":7861,"BSTAR":0,"MEAN_MOTION_DOT":-1.6e-7,"MEAN_MOTION_DDOT":0},{"OBJECT_NAME":"COSMOS 2522 (752)","OBJECT_ID":"2017-055A","EPOCH":"2026-03-14T19:14:37.652352","MEAN_MOTION":2.13101854,"ECCENTRICITY":0.00076327,"INCLINATION":64.0785,"RA_OF_ASC_NODE":195.0941,"ARG_OF_PERICENTER":229.0465,"MEAN_ANOMALY":130.8698,"EPHEMERIS_TYPE":0,"CLASSIFICATION_TYPE":"U","NORAD_CAT_ID":42939,"ELEMENT_SET_NO":999,"REV_AT_EPOCH":6596,"BSTAR":0,"MEAN_MOTION_DOT":1.0e-8,"MEAN_MOTION_DDOT":0},{"OBJECT_NAME":"COSMOS 2527 (756)","OBJECT_ID":"2018-053A","EPOCH":"2026-03-14T07:03:09.493632","MEAN_MOTION":2.13102379,"ECCENTRICITY":0.00096205,"INCLINATION":65.5239,"RA_OF_ASC_NODE":77.0711,"ARG_OF_PERICENTER":246.0472,"MEAN_ANOMALY":113.8919,"EPHEMERIS_TYPE":0,"CLASSIFICATION_TYPE":"U","NORAD_CAT_ID":43508,"ELEMENT_SET_NO":999,"REV_AT_EPOCH":6025,"BSTAR":0,"MEAN_MOTION_DOT":5.9e-7,"MEAN_MOTION_DDOT":0}]
